NORAD_CAT_ID,OBJECT_NAME,OBJECT_TYPE,EPOCH,MEAN_MOTION,ECCENTRICITY,INCLINATION,RA_OF_ASC_NODE,ARG_OF_PERICENTER,MEAN_ANOMALY,BSTAR,MEAN_MOTION_DOT,MEAN_MOTION_DDOT,TLE_LINE0,TLE_LINE1,TLE_LINE2,SEMIMAJOR_AXIS,PERIOD,APOGEE,PERIGEE,DECAYED
49768.0,STARLINK-3196,PAYLOAD,2022-08-05 20:13:49,15.08840496,0.0001851,53.2156,268.2408,49.3558,310.7595,7.7941e-05,9.53e-06,0.0,0 STARLINK-3196,1 49768U 21115AW  22217.84293081  .00000953  00000-0  77941-4 0  9992,2 49768  53.2156 268.2408 0001851  49.3558 310.7595 15.08840496 37631,6917.879,95.438,541.024,538.4630000000002,0.0
49768.0,STARLINK-3196,PAYLOAD,2022-08-06 10:32:18,15.088318300000005,0.0001899999999999,53.2161,265.5646,50.6054,309.5106,-3.1261e-05,-7.86e-06,0.0,0 STARLINK-3196,1 49768U 21115AW  22218.43910203 -.00000786  00000-0 -31261-4 0  9991,2 49768  53.2161 265.5646 0001900  50.6054 309.5106 15.08831830 38831,6917.905,95.438,541.085,538.456,0.0
49768.0,STARLINK-3196,PAYLOAD,2022-08-06 20:04:37,15.08833798,0.0001929,53.216,263.7804,50.6154,309.5009,-1.8926e-05,-5.89e-06,0.0,0 STARLINK-3196,1 49768U 21115AW  22218.83654201 -.00000589  00000-0 -18926-4 0  9992,2 49768  53.2160 263.7804 0001929  50.6154 309.5009 15.08833798 37788,6917.899,95.438,541.099,538.43,0.0
49768.0,STARLINK-3196,PAYLOAD,2022-08-07 10:23:05,15.08838233,0.0001916999999999,53.2165,261.1042,50.992,309.1243,-2.6866e-05,-7.16e-06,0.0,0 STARLINK-3196,1 49768U 21115AW  22219.43270071 -.00000716  00000-0 -26866-4 0  9992,2 49768  53.2165 261.1042 0001917  50.9920 309.1243 15.08838233 37875,6917.886,95.438,541.077,538.425,0.0
49768.0,STARLINK-3196,PAYLOAD,2022-08-07 19:55:23,15.08840821,0.0001939,53.2165,259.3199,50.3681,309.7482,-5.6333000000000025e-06,-3.78e-06,0.0,0 STARLINK-3196,1 49768U 21115AW  22219.83013882 -.00000378  00000-0 -56333-5 0  9998,2 49768  53.2165 259.3199 0001939  50.3681 309.7482 15.08840821 37933,6917.878000000002,95.438,541.0840000000002,538.4019999999998,0.0
49768.0,STARLINK-3196,PAYLOAD,2022-08-08 10:13:51,15.08842529,0.0001859,53.2157,256.6429,49.2553,310.8601,0.0001204,1.629e-05,0.0,0 STARLINK-3196,1 49768U 21115AW  22220.42629403  .00001629  00000-0  12040-3 0  9990,2 49768  53.2157 256.6429 0001859  49.2553 310.8601 15.08842529 38020,6917.873000000001,95.437,541.024,538.452,0.0
49768.0,STARLINK-3196,PAYLOAD,2022-08-08 19:46:10,15.08846296,0.0001883,53.2158,254.8587,49.6992,310.4164,0.00013754,1.902e-05,0.0,0 STARLINK-3196,1 49768U 21115AW  22220.82373018  .00001902  00000-0  13754-3 0  9999,2 49768  53.2158 254.8587 0001883  49.6992 310.4164 15.08846296 38085,6917.861,95.437,541.029,538.424,0.0
49768.0,STARLINK-3196,PAYLOAD,2022-08-09 11:40:02,15.08840203,0.0001810999999999,53.2157,251.8849,48.5772,311.5375,4.0497e-05,3.56e-06,0.0,0 STARLINK-3196,1 49768U 21115AW  22221.48613460  .00000356  00000-0  40497-4 0  9997,2 49768  53.2157 251.8849 0001811  48.5772 311.5375 15.08840203 38186,6917.88,95.438,540.998,538.492,0.0
49768.0,STARLINK-3196,PAYLOAD,2022-08-10 11:30:49,15.08832635,0.000185,53.2158,247.4247,45.7665,314.3479,-8.2405e-05,-1.599e-05,0.0,0 STARLINK-3196,1 49768U 21115AW  22222.47974449 -.00001599  00000-0 -82405-4 0  9991,2 49768  53.2158 247.4247 0001850  45.7665 314.3479 15.08832635 38336,6917.903,95.438,541.048,538.488,0.0
49768.0,STARLINK-3196,PAYLOAD,2022-08-11 11:21:37,15.0883545,0.0001776999999999,53.2164,242.9638,42.7586,317.3545,-7.9116e-05,-1.547e-05,0.0,0 STARLINK-3196,1 49768U 21115AW  22223.47334613 -.00001547  00000-0 -79116-4 0  9993,2 49768  53.2164 242.9638 0001777  42.7586 317.3545 15.08835450 38485,6917.894,95.438,540.989,538.53,0.0
49768.0,STARLINK-3196,PAYLOAD,2022-08-11 12:57:00,15.08835182,0.0001835,53.2158,242.6668,40.8357,319.2773,-7.3407e-05,-1.456e-05,0.0,0 STARLINK-3196,1 49768U 21115AW  22223.53958627 -.00001456  00000-0 -73407-4 0  9993,2 49768  53.2158 242.6668 0001835  40.8357 319.2773 15.08835182 39609,6917.895,95.438,541.03,538.491,0.0
49768.0,STARLINK-3196,PAYLOAD,2022-08-12 11:12:24,15.08829345,0.0001906999999999,53.2157,238.5037,45.6812,314.4337,0.0001214,1.644e-05,0.0,0 STARLINK-3196,1 49768U 21115AW  22224.46695203  .00001644  00000-0  12140-3 0  9997,2 49768  53.2157 238.5037 0001907  45.6812 314.4337 15.08829345 38630,6917.913000000001,95.438,541.097,538.4590000000002,0.0
49768.0,STARLINK-3196,PAYLOAD,2022-08-12 17:33:57,15.08831602,0.0001918,53.2156,237.3142,45.7146,314.4004,0.00012558,1.711e-05,0.0,0 STARLINK-3196,1 49768U 21115AW  22224.73191251  .00001711  00000-0  12558-3 0  9999,2 49768  53.2156 237.3142 0001918  45.7146 314.4004 15.08831602 38670,6917.906,95.438,541.0980000000002,538.444,0.0
49768.0,STARLINK-3196,PAYLOAD,2022-08-13 11:03:11,15.08838272,0.0001959,53.2155,234.043,46.9784,313.1372,0.00013423,1.849e-05,0.0,0 STARLINK-3196,1 49768U 21115AW  22225.46055204  .00001849  00000-0  13423-3 0  9991,2 49768  53.2155 234.0430 0001959  46.9784 313.1372 15.08838272 38785,6917.886,95.438,541.106,538.395,0.0
49768.0,STARLINK-3196,PAYLOAD,2022-08-14 02:57:02,15.08844065,0.0001994,53.2154,231.0693,47.7274,312.3887,0.00012862,1.76e-05,0.0,0 STARLINK-3196,1 49768U 21115AW  22226.12294883  .00001760  00000-0  12862-3 0  9991,2 49768  53.2154 231.0693 0001994  47.7274 312.3887 15.08844065 39997,6917.868,95.437,541.112,538.354,0.0
49768.0,STARLINK-3196,PAYLOAD,2022-08-14 10:53:58,15.08844872,0.0002026,53.2154,229.5826,51.1873,308.93,0.00010084,1.317e-05,0.0,0 STARLINK-3196,1 49768U 21115AW  22226.45414865  .00001317  00000-0  10084-3 0  9993,2 49768  53.2154 229.5826 0002026  51.1873 308.9300 15.08844872 38938,6917.865,95.437,541.132,538.3290000000002,0.0
49768.0,STARLINK-3196,PAYLOAD,2022-08-15 01:12:27,15.08835262,0.0002104,53.2153,226.906,47.6576,312.4594,1.9699e-05,2.5e-07,0.0,0 STARLINK-3196,1 49768U 21115AW  22227.05031792  .00000025  00000-0  19699-4 0  9991,2 49768  53.2153 226.9060 0002104  47.6576 312.4594 15.08835262 40138,6917.895,95.438,541.215,538.304,0.0
49768.0,STARLINK-3196,PAYLOAD,2022-08-15 09:09:23,15.08837535,0.0002082,53.2152,225.4186,47.5011,312.6156,2.0573e-05,3.9e-07,0.0,0 STARLINK-3196,1 49768U 21115AW  22227.38151721  .00000039  00000-0  20573-4 0  9990,2 49768  53.2152 225.4186 0002082  47.5011 312.6156 15.08837535 39070,6917.888000000001,95.438,541.193,538.313,0.0
49768.0,STARLINK-3196,PAYLOAD,2022-08-16 05:49:23,15.08845062,0.0002035,53.2155,221.5532,50.4845,309.6327,5.3856e-05,5.69e-06,0.0,0 STARLINK-3196,1 49768U 21115AW  22228.24263269  .00000569  00000-0  53856-4 0  9995,2 49768  53.2155 221.5532 0002035  50.4845 309.6327 15.08845062 40310,6917.865,95.437,541.138,538.322,0.0
49768.0,STARLINK-3196,PAYLOAD,2022-08-16 09:00:09,15.0884423,0.0002104,53.2147,220.9584,48.8082,311.3091,4.0156e-05,3.51e-06,0.0,0 STARLINK-3196,1 49768U 21115AW  22228.37511267  .00000351  00000-0  40156-4 0  9991,2 49768  53.2147 220.9584 0002104  48.8082 311.3091 15.08844230 39224,6917.8669999999975,95.437,541.188,538.2769999999998,0.0
49768.0,STARLINK-3196,PAYLOAD,2022-08-16 16:57:05,15.08847507,0.0002058,53.2155,219.4717,50.4539,309.6634,6.5351e-05,7.52e-06,0.0,0 STARLINK-3196,1 49768U 21115AW  22228.70630945  .00000752  00000-0  65351-4 0  9992,2 49768  53.2155 219.4717 0002058  50.4539 309.6634 15.08847507 39276,6917.857,95.437,541.146,538.299,0.0
49768.0,STARLINK-3196,PAYLOAD,2022-08-17 08:50:56,15.08848027,0.0002099,53.2154,216.4978,50.298,309.8197,0.00018341,2.633e-05,0.0,0 STARLINK-3196,1 49768U 21115AW  22229.36870802  .00002633  00000-0  18341-3 0  9999,2 49768  53.2154 216.4978 0002099  50.2980 309.8197 15.08848027 39379,6917.856,95.437,541.173,538.269,0.0
49768.0,STARLINK-3196,PAYLOAD,2022-08-18 05:30:57,15.08843982,0.0002083,53.2158,212.6314,51.8781,308.2398,6.9997e-05,8.26e-06,0.0,0 STARLINK-3196,1 49768U 21115AW  22230.22983105  .00000826  00000-0  69997-4 0  9993,2 49768  53.2158 212.6314 0002083  51.8781 308.2398 15.08843982 40614,6917.868,95.437,541.174,538.2919999999998,0.0
49768.0,STARLINK-3196,PAYLOAD,2022-08-18 08:41:43,15.08843081,0.0002114,53.2157,212.037,51.5445,308.5737,5.8153e-05,6.37e-06,0.0,0 STARLINK-3196,1 49768U 21115AW  22230.36231132  .00000637  00000-0  58153-4 0  9996,2 49768  53.2157 212.0370 0002114  51.5445 308.5737 15.08843081 39526,6917.871,95.437,541.198,538.274,0.0
49768.0,STARLINK-3196,PAYLOAD,2022-08-19 05:21:43,15.08851953,0.0002124,53.2154,208.1712,51.5034,308.6148,0.00010165,1.33e-05,0.0,0 STARLINK-3196,1 49768U 21115AW  22231.22342074  .00001330  00000-0  10165-3 0  9991,2 49768  53.2154 208.1712 0002124  51.5034 308.6148 15.08851953 39652,6917.844,95.437,541.178,538.24,0.0
49768.0,STARLINK-3196,PAYLOAD,2022-08-20 05:12:31,15.08840991,0.0002198999999999,53.2158,203.7111,51.0848,309.034,9.2158e-05,1.179e-05,0.0,0 STARLINK-3196,1 49768U 21115AW  22232.21702704  .00001179  00000-0  92158-4 0  9995,2 49768  53.2158 203.7111 0002199  51.0848 309.0340 15.08840991 40910,6917.877,95.437,541.264,538.221,0.0
49768.0,STARLINK-3196,PAYLOAD,2022-08-21 05:03:19,15.0883572,0.0002171,53.2158,199.2512,50.7783,309.3402,-4.2173e-05,-9.59e-06,0.0,0 STARLINK-3196,1 49768U 21115AW  22233.21063692 -.00000959  00000-0 -42173-4 0  9991,2 49768  53.2158 199.2512 0002171  50.7783 309.3402 15.08835720 41061,6917.893,95.438,541.26,538.257,0.0
49768.0,STARLINK-3196,PAYLOAD,2022-08-21 06:38:42,15.08835127,0.0002179,53.2159,198.9539,52.5421,307.5769,-2.733e-05,-7.23e-06,0.0,0 STARLINK-3196,1 49768U 21115AW  22233.27687733 -.00000723  00000-0 -27330-4 0  9992,2 49768  53.2159 198.9539 0002179  52.5421 307.5769 15.08835127 39967,6917.895,95.438,541.268,538.253,0.0
49768.0,STARLINK-3196,PAYLOAD,2022-08-21 14:35:37,15.08837805,0.0002189,53.2162,197.4677,52.0779,308.041,-2.3604e-05,-6.64e-06,0.0,0 STARLINK-3196,1 49768U 21115AW  22233.60807671 -.00000664  00000-0 -23604-4 0  9998,2 49768  53.2162 197.4677 0002189  52.0779 308.0410 15.08837805 40012,6917.887,95.438,541.266,538.238,0.0
